[{"OBJECT_NAME":"STARLINK-3972","OBJECT_ID":"2022-053P","EPOCH":"2026-03-09T12:21:00.546624","MEAN_MOTION":15.08837575,"ECCENTRICITY":0.00013707,"INCLINATION":53.2168,"RA_OF_ASC_NODE":154.9067,"ARG_OF_PERICENTER":100.9013,"MEAN_ANOMALY":259.2133,"EPHEMERIS_TYPE":0,"CLASSIFICATION_TYPE":"U","NORAD_CAT_ID":52669,"ELEMENT_SET_NO":999,"REV_AT_EPOCH":21101,"BSTAR":-5.471722e-6,"MEAN_MOTION_DOT":-3.75e-6,"MEAN_MOTION_DDOT":0},{"OBJECT_NAME":"ICON","OBJECT_ID":"2019-068A","EPOCH":"2026-03-09T22:35:01.599072","MEAN_MOTION":15.06276737,"ECCENTRICITY":0.00134076,"INCLINATION":26.9847,"RA_OF_ASC_NODE":325.9297,"ARG_OF_PERICENTER":187.0145,"MEAN_ANOMALY":173.0229,"EPHEMERIS_TYPE":0,"CLASSIFICATION_TYPE":"U","NORAD_CAT_ID":44628,"ELEMENT_SET_NO":999,"REV_AT_EPOCH":35105,"BSTAR":0.00030799545,"MEAN_MOTION_DOT":4.879e-5,"MEAN_MOTION_DDOT":0}]
